start=new Date('2022-11-04T00:00:00.000Z').valueOf();
sats=[{"CENTER_NAME":"EARTH","PERIAPSIS":"546.133","MEAN_MOTION_DOT":"-0.00001147","TLE_LINE1":"1 47633U 21012P   22306.98718815 -.00001147  00000-0 -58134-4 0  9999","OBJECT_TYPE":"PAYLOAD","ELEMENT_SET_NO":"999","MEAN_ANOMALY":"278.4220","REV_AT_EPOCH":"9571","RCS_SIZE":"LARGE","ECCENTRICITY":"0.00016490","MEAN_ELEMENT_THEORY":"SGP4","REF_FRAME":"TEME","RA_OF_ASC_NODE":"160.5773","BSTAR":"-0.00005813400000","NORAD_CAT_ID":"47633","SEMIMAJOR_AXIS":"6925.410","DECAY_DATE":null,"COUNTRY_CODE":"US","TLE_LINE2":"2 47633  53.0558 160.5773 0001649  81.6955 278.4220 15.06379853 95718","MEAN_MOTION":"15.06379853","ARG_OF_PERICENTER":"81.6955","EPHEMERIS_TYPE":"0","OBJECT_NAME":"STARLINK-2009","SITE":"AFETR","APOAPSIS":"548.417","CLASSIFICATION_TYPE":"U","PERIOD":"95.593","OBJECT_ID":"2021-012P","FILE":"3643813","TIME_SYSTEM":"UTC","MEAN_MOTION_DDOT":"0.0000000000000","LAUNCH_DATE":"2021-02-16","EPOCH":"2022-11-02T23:41:33.056160","INCLINATION":"53.0558","GP_ID":"216831071"},{"ELEMENT_SET_NO":"999","MEAN_ANOMALY":"262.6811","CENTER_NAME":"EARTH","PERIAPSIS":"546.310","MEAN_MOTION_DOT":"0.00000404","TLE_LINE1":"1 47634U 21012Q   22307.62578887  .00000404  00000-0  46050-4 0  9992","OBJECT_TYPE":"PAYLOAD","RA_OF_ASC_NODE":"157.6826","BSTAR":"0.00004605000000","SEMIMAJOR_AXIS":"6925.374","NORAD_CAT_ID":"47634","REV_AT_EPOCH":"9578","RCS_SIZE":"LARGE","MEAN_ELEMENT_THEORY":"SGP4","ECCENTRICITY":"0.00013410","REF_FRAME":"TEME","CLASSIFICATION_TYPE":"U","PERIOD":"95.593","OBJECT_ID":"2021-012Q","FILE":"3644033","DECAY_DATE":null,"COUNTRY_CODE":"US","TLE_LINE2":"2 47634  53.0544 157.6826 0001341  97.4331 262.6811 15.06391657 95786","MEAN_MOTION":"15.06391657","EPHEMERIS_TYPE":"0","OBJECT_NAME":"STARLINK-2010","ARG_OF_PERICENTER":"97.4331","SITE":"AFETR","APOAPSIS":"548.168","INCLINATION":"53.0544","GP_ID":"216860652","TIME_SYSTEM":"UTC","MEAN_MOTION_DDOT":"0.0000000000000","LAUNCH_DATE":"2021-02-16","EPOCH":"2022-11-03T15:01:08.158368"},{"EPOCH":"2022-11-03T17:13:07.951296","MEAN_MOTION_DDOT":"0.0000000000000","LAUNCH_DATE":"2021-02-16","TIME_SYSTEM":"UTC","GP_ID":"216861398","INCLINATION":"53.0561","APOAPSIS":"548.013","SITE":"AFETR","OBJECT_NAME":"STARLINK-2012","ARG_OF_PERICENTER":"73.5280","EPHEMERIS_TYPE":"0","MEAN_MOTION":"15.06420360","TLE_LINE2":"2 47635  53.0561  62.2720 0001244  73.5280 286.5845 15.06420360 97137","COUNTRY_CODE":"US","DECAY_DATE":null,"FILE":"3644033","PERIOD":"95.591","OBJECT_ID":"2021-012R","CLASSIFICATION_TYPE":"U","REF_FRAME":"TEME","ECCENTRICITY":"0.00012440","MEAN_ELEMENT_THEORY":"SGP4","REV_AT_EPOCH":"9713","RCS_SIZE":"LARGE","NORAD_CAT_ID":"47635","SEMIMAJOR_AXIS":"6925.286","RA_OF_ASC_NODE":"62.2720","BSTAR":"0.00022481000000","OBJECT_TYPE":"PAYLOAD","MEAN_MOTION_DOT":"0.00003070","TLE_LINE1":"1 47635U 21012R   22307.71745314  .00003070  00000-0  22481-3 0  9997","PERIAPSIS":"546.290","CENTER_NAME":"EARTH","MEAN_ANOMALY":"286.5845","ELEMENT_SET_NO":"999"},{"NORAD_CAT_ID":"47636","SEMIMAJOR_AXIS":"6925.338","RA_OF_ASC_NODE":"137.7483","BSTAR":"0.00005240400000","ECCENTRICITY":"0.00012530","MEAN_ELEMENT_THEORY":"SGP4","RCS_SIZE":"LARGE","REV_AT_EPOCH":"9606","REF_FRAME":"TEME","MEAN_ANOMALY":"251.8467","ELEMENT_SET_NO":"999","CENTER_NAME":"EARTH","MEAN_MOTION_DOT":"0.00000499","TLE_LINE1":"1 47636U 21012S   22307.61288545  .00000499  00000-0  52404-4 0  9996","OBJECT_TYPE":"PAYLOAD","PERIAPSIS":"546.335","INCLINATION":"53.0547","GP_ID":"216860151","MEAN_MOTION_DDOT":"0.0000000000000","LAUNCH_DATE":"2021-02-16","TIME_SYSTEM":"UTC","EPOCH":"2022-11-03T14:42:33.302880","OBJECT_ID":"2021-012S","PERIOD":"95.592","FILE":"3644033","CLASSIFICATION_TYPE":"U","MEAN_MOTION":"15.06403543","DECAY_DATE":null,"COUNTRY_CODE":"US","TLE_LINE2":"2 47636  53.0547 137.7483 0001253 108.2658 251.8467 15.06403543 96061","EPHEMERIS_TYPE":"0","OBJECT_NAME":"STARLINK-2013","ARG_OF_PERICENTER":"108.2658","SITE":"AFETR","APOAPSIS":"548.070"},{"EPOCH":"2022-11-03T20:22:14.049408","TIME_SYSTEM":"UTC","MEAN_MOTION_DDOT":"0.0000000000000","LAUNCH_DATE":"2021-02-16","GP_ID":"216859901","INCLINATION":"53.0536","SITE":"AFETR","APOAPSIS":"548.132","OBJECT_NAME":"STARLINK-2014","ARG_OF_PERICENTER":"103.6068","EPHEMERIS_TYPE":"0","COUNTRY_CODE":"US","TLE_LINE2":"2 47637  53.0536 136.6793 0001336 103.6068 256.5070 15.06402163 96113","DECAY_DATE":null,"MEAN_MOTION":"15.06402163","CLASSIFICATION_TYPE":"U","FILE":"3644033","OBJECT_ID":"2021-012T","PERIOD":"95.592","REF_FRAME":"TEME","RCS_SIZE":"LARGE","REV_AT_EPOCH":"9611","MEAN_ELEMENT_THEORY":"SGP4","ECCENTRICITY":"0.00013360","RA_OF_ASC_NODE":"136.6793","BSTAR":"0.00021518000000","NORAD_CAT_ID":"47637","SEMIMAJOR_AXIS":"6925.342","PERIAPSIS":"546.282","OBJECT_TYPE":"PAYLOAD","MEAN_MOTION_DOT":"0.00002925","TLE_LINE1":"1 47637U 21012T   22307.84877372  .00002925  00000-0  21518-3 0  9991","CENTER_NAME":"EARTH","ELEMENT_SET_NO":"999","MEAN_ANOMALY":"256.5070"},{"EPOCH":"2022-11-03T17:07:50.084832","TIME_SYSTEM":"UTC","LAUNCH_DATE":"2021-02-16","MEAN_MOTION_DDOT":"0.0000000000000","GP_ID":"216861153","INCLINATION":"53.0554","APOAPSIS":"548.456","SITE":"AFETR","EPHEMERIS_TYPE":"0","ARG_OF_PERICENTER":"108.1445","OBJECT_NAME":"STARLINK-2015","TLE_LINE2":"2 47638  53.0554  62.2706 0001820 108.1445 251.9742 15.06405815 97112","COUNTRY_CODE":"US","DECAY_DATE":null,"MEAN_MOTION":"15.06405815","CLASSIFICATION_TYPE":"U","FILE":"3644033","PERIOD":"95.592","OBJECT_ID":"2021-012U","REF_FRAME":"TEME","RCS_SIZE":"LARGE","REV_AT_EPOCH":"9711","ECCENTRICITY":"0.00018200","MEAN_ELEMENT_THEORY":"SGP4","BSTAR":"0.00023086000000","RA_OF_ASC_NODE":"62.2706","SEMIMAJOR_AXIS":"6925.331","NORAD_CAT_ID":"47638","PERIAPSIS":"545.935","OBJECT_TYPE":"PAYLOAD","MEAN_MOTION_DOT":"0.00003159","TLE_LINE1":"1 47638U 21012U   22307.71377413  .00003159  00000-0  23086-3 0  9991","CENTER_NAME":"EARTH","ELEMENT_SET_NO":"999","MEAN_ANOMALY":"251.9742"},{"CLASSIFICATION_TYPE":"U","FILE":"3644033","PERIOD":"95.592","OBJECT_ID":"2021-012V","SITE":"AFETR","APOAPSIS":"548.073","ARG_OF_PERICENTER":"113.0295","OBJECT_NAME":"STARLINK-2016","EPHEMERIS_TYPE":"0","TLE_LINE2":"2 47639  53.0548 136.4899 0001254 113.0295 247.0826 15.06402843 96095","COUNTRY_CODE":"US","DECAY_DATE":null,"MEAN_MOTION":"15.06402843","GP_ID":"216860898","INCLINATION":"53.0548","EPOCH":"2022-11-03T21:25:55.985376","TIME_SYSTEM":"UTC","LAUNCH_DATE":"2021-02-16","MEAN_MOTION_DDOT":"0.0000000000000","ELEMENT_SET_NO":"999","MEAN_ANOMALY":"247.0826","PERIAPSIS":"546.336","OBJECT_TYPE":"PAYLOAD","MEAN_MOTION_DOT":"0.00001319","TLE_LINE1":"1 47639U 21012V   22307.89300909  .00001319  00000-0  10744-3 0  9990","CENTER_NAME":"EARTH","BSTAR":"0.00010744000000","RA_OF_ASC_NODE":"136.4899","SEMIMAJOR_AXIS":"6925.340","NORAD_CAT_ID":"47639","REF_FRAME":"TEME","RCS_SIZE":"LARGE","REV_AT_EPOCH":"9609","ECCENTRICITY":"0.00012540","MEAN_ELEMENT_THEORY":"SGP4"},{"REF_FRAME":"TEME","REV_AT_EPOCH":"9574","RCS_SIZE":"LARGE","MEAN_ELEMENT_THEORY":"SGP4","ECCENTRICITY":"0.00014080","BSTAR":"0.00025875000000","RA_OF_ASC_NODE":"159.1830","SEMIMAJOR_AXIS":"6925.344","NORAD_CAT_ID":"47640","PERIAPSIS":"546.233","OBJECT_TYPE":"PAYLOAD","MEAN_MOTION_DOT":"0.00003575","TLE_LINE1":"1 47640U 21012W   22307.29036229  .00003575  00000-0  25875-3 0  9994","CENTER_NAME":"EARTH","ELEMENT_SET_NO":"999","MEAN_ANOMALY":"268.5189","EPOCH":"2022-11-03T06:58:07.301856","TIME_SYSTEM":"UTC","LAUNCH_DATE":"2021-02-16","MEAN_MOTION_DDOT":"0.0000000000000","GP_ID":"216830320","INCLINATION":"53.0537","APOAPSIS":"548.184","SITE":"AFETR","ARG_OF_PERICENTER":"91.5962","OBJECT_NAME":"STARLINK-2018","EPHEMERIS_TYPE":"0","COUNTRY_CODE":"US","TLE_LINE2":"2 47640  53.0537 159.1830 0001408  91.5962 268.5189 15.06401629 95746","DECAY_DATE":null,"MEAN_MOTION":"15.06401629","CLASSIFICATION_TYPE":"U","FILE":"3643813","PERIOD":"95.592","OBJECT_ID":"2021-012W"},{"REF_FRAME":"TEME","MEAN_ELEMENT_THEORY":"SGP4","ECCENTRICITY":"0.00014530","REV_AT_EPOCH":"9662","RCS_SIZE":"LARGE","NORAD_CAT_ID":"47641","SEMIMAJOR_AXIS":"6925.316","RA_OF_ASC_NODE":"62.0538","BSTAR":"0.00024033000000","OBJECT_TYPE":"PAYLOAD","TLE_LINE1":"1 47641U 21012X   22307.76537572  .00003301  00000-0  24033-3 0  9996","MEAN_MOTION_DOT":"0.00003301","PERIAPSIS":"546.174","CENTER_NAME":"EARTH","MEAN_ANOMALY":"260.6559","ELEMENT_SET_NO":"999","EPOCH":"2022-11-03T18:22:08.462208","MEAN_MOTION_DDOT":"0.0000000000000","LAUNCH_DATE":"2021-02-16","TIME_SYSTEM":"UTC","GP_ID":"216836202","INCLINATION":"53.0552","APOAPSIS":"548.187","SITE":"AFETR","EPHEMERIS_TYPE":"0","OBJECT_NAME":"STARLINK-2019","ARG_OF_PERICENTER":"99.4594","MEAN_MOTION":"15.06410752","COUNTRY_CODE":"US","TLE_LINE2":"2 47641  53.0552  62.0538 0001453  99.4594 260.6559 15.06410752 96628","DECAY_DATE":null,"FILE":"3643885","PERIOD":"95.591","OBJECT_ID":"2021-012X","CLASSIFICATION_TYPE":"U"},{"ELEMENT_SET_NO":"999","MEAN_ANOMALY":"242.7034","CENTER_NAME":"EARTH","PERIAPSIS":"546.166","OBJECT_TYPE":"PAYLOAD","TLE_LINE1":"1 47642U 21012Y   22307.62810098  .00010169  00000-0  70077-3 0  9998","MEAN_MOTION_DOT":"0.00010169","BSTAR":"0.00070077000000","RA_OF_ASC_NODE":"152.6550","SEMIMAJOR_AXIS":"6925.381","NORAD_CAT_ID":"47642","RCS_SIZE":"LARGE","REV_AT_EPOCH":"9585","ECCENTRICITY":"0.00015590","MEAN_ELEMENT_THEORY":"SGP4","REF_FRAME":"TEME","CLASSIFICATION_TYPE":"U","FILE":"3644033","OBJECT_ID":"2021-012Y","PERIOD":"95.593","TLE_LINE2":"2 47642  53.0527 152.6550 0001559 117.4114 242.7034 15.06389396 95859","COUNTRY_CODE":"US","DECAY_DATE":null,"MEAN_MOTION":"15.06389396","APOAPSIS":"548.326","SITE":"AFETR","ARG_OF_PERICENTER":"117.4114","OBJECT_NAME":"STARLINK-2020","EPHEMERIS_TYPE":"0","INCLINATION":"53.0527","GP_ID":"216860653","TIME_SYSTEM":"UTC","LAUNCH_DATE":"2021-02-16","MEAN_MOTION_DDOT":"0.0000000000000","EPOCH":"2022-11-03T15:04:27.924672"}];
